ONEWEB-0128             
1 47274U 20100S   25004.70740133  .00000365  00000+0  97926-3 0  9992
2 47274  87.8889  95.9241 0001605 114.0125 246.1171 13.12441734195423
ONEWEB-0129             
1 47275U 20100T   25004.68631147  .00000285  00000+0  75762-3 0  9999
2 47275  87.8883  95.8826 0002897 121.3763 238.7649 13.12446582195354
ONEWEB-0130             
1 47276U 20100U   25004.71388608  .00000118  00000+0  29262-3 0  9994
2 47276  87.8883  95.8816 0001696 110.0655 250.0656 13.12440454195329
ONEWEB-0131             
1 47277U 20100V   25004.71064492  .00000217  00000+0  56688-3 0  9999
2 47277  87.8885  95.9028 0001638 108.7970 251.3337 13.12441090195369
ONEWEB-0132             
1 47278U 20100W   25004.66360142 -.00000333  00000+0 -96007-3 0  9995
2 47278  87.8882  95.9136 0001522 100.2440 259.8860 13.12444371195255
ONEWEB-0133             
1 47279U 20100X   25004.67982534  .00000146  00000+0  36950-3 0  9993
2 47279  87.8877  95.8979 0001614 108.0017 252.1287 13.12446276195415
ONEWEB-0134             
1 47280U 20100Y   25004.72524079 -.00000290  00000+0 -84175-3 0  9991
2 47280  87.8875  95.8740 0001733 116.4933 243.6374 13.12444195195390
ONEWEB-0135             
1 47281U 20100Z   25004.69603945  .00000546  00000+0  14809-2 0  9996
2 47281  87.8882  95.9079 0001500 123.5987 236.5285 13.12447312195414
